ORBCOMM FM06            
1 25118U 97084G   26177.27308475  .00001252  00000+0  37599-3 0  9999
2 25118  45.0147   8.9718 0000247  14.1043 155.9882 14.47584275495709
ORBCOMM FM04            
1 25159U 98007C   26177.31267802  .00000785  00000+0  31414-3 0  9993
2 25159 107.9627 188.2011 0041587 309.0884  50.6561 14.35756582477900
ORBCOMM FM19            
1 25415U 98046C   26176.40079184  .00000627  00000+0  24449-3 0  9999
2 25415  44.9920 204.5186 0004409 315.5673  59.4960 14.39507192457965
ORBCOMM FM20            
1 25416U 98046D   26176.41884505  .00000443  00000+0  19147-3 0  9997
2 25416  44.9922 212.4464 0002490 277.6105  82.4460 14.38074913457972
ORBCOMM FM27            
1 25481U 98053G   26176.58711712  .00000803  00000+0  30262-3 0  9995
2 25481  45.0060 295.4570 0001771 225.3180 134.7525 14.39156019451440
ORBCOMM FM32            
1 25982U 99065C   26177.18842122  .00000616  00000+0  25274-3 0  9991
2 25982  45.0140 130.6321 0004279  88.1459 271.9879 14.37141283388382
ORBCOMM FM109           
1 40086U 14040A   26176.38527576  .00000426  00000+0  12639-3 0  9997
2 40086  47.0038  52.7267 0001969 267.9134  92.1526 14.58853571635543
ORBCOMM FM110           
1 41182U 15081D   26176.87007757  .00000594  00000+0  16170-3 0  9999
2 41182  47.0031 320.3877 0002583 128.0732 232.0387 14.58892092558892
ORBCOMM FM118           
1 41183U 15081E   26176.90435560  .00000381  00000+0  11675-3 0  9990
2 41183  47.0054 320.5586 0002319  77.9621 282.1524 14.58886133559005
ORBCOMM FM112           
1 41184U 15081F   26176.49784057  .00000383  00000+0  11714-3 0  9999
2 41184  46.9976 230.9484 0004073 250.8293 109.2152 14.58913169560169
ORBCOMM FM113           
1 41185U 15081G   26175.85835780  .00000236  00000+0  86127-4 0  9997
2 41185  46.9996 234.3526 0002552 251.1934 108.8675 14.58864475560051
ORBCOMM FM108           
1 41187U 15081J   26177.19039163  .00000625  00000+0  16846-3 0  9991
2 41187  47.0037 139.6294 0003129 255.2318 104.8221 14.58884496561398
ORBCOMM FM117           
1 41188U 15081K   26176.60807449  .00000274  00000+0  94183-4 0  9998
2 41188  46.9999 141.0141 0003651 256.7948 103.2531 14.58870589561358
ORBCOMM FM116           
1 41189U 15081L   26176.51992163  .00000412  00000+0  12318-3 0  9990
2 41189  47.0011 231.2222 0000645 150.1988 209.8935 14.58892527560153
